{"type": "FeatureCollection", "features": [ {"type": "Feature", "properties": {"norad_id": 44543, "name": "BEIDOU-3 M23 (C45)", "group": "beidou", "lat": -54.144829578230286, "lon": 106.627284878187, "alt_km": 21539.71550307506, "timestamp": "2025-12-06T11:28:11.328262+00:00", "meta": {"OBJECT_NAME": "BEIDOU-3 M23 (C45)", "OBJECT_ID": "2019-061B", "EPOCH": "2025-12-04T17:20:06.370944", "MEAN_MOTION": 1.86227466, "ECCENTRICITY": 0.0006129, "INCLINATION": 54.3989, "RA_OF_ASC_NODE": 189.2553, "ARG_OF_PERICENTER": 23.0087, "MEAN_ANOMALY": 154.4182, "EPHEMERIS_TYPE": 0, "CLASSIFICATION_TYPE": "U", "NORAD_CAT_ID": 44543, "ELEMENT_SET_NO": 999, "REV_AT_EPOCH": 4217, "BSTAR": 0, "MEAN_MOTION_DOT": 1e-06, "MEAN_MOTION_DDOT": 0}, "tle": {"line1": "1 44543U 19061B   25338.72229596  .00000100  00000+0  00000+0 0  9999", "line2": "2 44543  54.3989 189.2553 0006129  23.0087 154.4182  1.86227466 42172"}}, "geometry": {"type": "Point", "coordinates": [106.627284878187, -54.144829578230286]}}, {"type": "Feature", "properties": {"norad_id": 44709, "name": "BEIDOU-3 IGSO-3 (C40)", "group": "beidou", "lat": 53.44531442135702, "lon": -7.280585876931774, "alt_km": 35861.86167659202, "timestamp": "2025-12-06T11:28:11.328274+00:00", "meta": {"OBJECT_NAME": "BEIDOU-3 IGSO-3 (C40)", "OBJECT_ID": "2019-073A", "EPOCH": "2025-11-20T07:11:22.740000", "MEAN_MOTION": 1.00250097, "ECCENTRICITY": 0.0044538, "INCLINATION": 55.163, "RA_OF_ASC_NODE": 283.159, "ARG_OF_PERICENTER": 191.5856, "MEAN_ANOMALY": 168.2409, "EPHEMERIS_TYPE": 0, "CLASSIFICATION_TYPE": "U", "NORAD_CAT_ID": 44709, "ELEMENT_SET_NO": 999, "REV_AT_EPOCH": 2236, "BSTAR": 0, "MEAN_MOTION_DOT": -2.06e-06, "MEAN_MOTION_DDOT": 0}, "tle": {"line1": "1 44709U 19073A   25324.29956875 -.00000206  00000+0  00000+0 0  9998", "line2": "2 44709  55.1630 283.1590 0044538 191.5856 168.2409  1.00250097 22360"}}, "geometry": {"type": "Point", "coordinates": [-7.280585876931774, 53.44531442135702]}}, {"type": "Feature", "properties": {"norad_id": 44793, "name": "BEIDOU-3 M22 (C44)", "group": "beidou", "lat": 50.05263366506382, "lon": 66.8329978308017, "alt_km": 21520.909431197648, "timestamp": "2025-12-06T11:28:11.328288+00:00", "meta": {"OBJECT_NAME": "BEIDOU-3 M22 (C44)", "OBJECT_ID": "2019-078A", "EPOCH": "2025-12-05T05:48:12.053952", "MEAN_MOTION": 1.86231816, "ECCENTRICITY": 0.00057288, "INCLINATION": 54.1154, "RA_OF_ASC_NODE": 306.6493, "ARG_OF_PERICENTER": 22.8633, "MEAN_ANOMALY": 337.1445, "EPHEMERIS_TYPE": 0, "CLASSIFICATION_TYPE": "U", "NORAD_CAT_ID": 44793, "ELEMENT_SET_NO": 999, "REV_AT_EPOCH": 4103, "BSTAR": 0, "MEAN_MOTION_DOT": -6.9e-07, "MEAN_MOTION_DDOT": 0}, "tle": {"line1": "1 44793U 19078A   25339.24180618 -.00000069  00000+0  00000+0 0  9998", "line2": "2 44793  54.1154 306.6493 0005728  22.8633 337.1445  1.86231816 41037"}}, "geometry": {"type": "Point", "coordinates": [66.8329978308017, 50.05263366506382]}}, {"type": "Feature", "properties": {"norad_id": 44794, "name": "BEIDOU-3 M21 (C43)", "group": "beidou", "lat": 13.344398630544294, "lon": -43.56027693244081, "alt_km": 21515.85496170965, "timestamp": "2025-12-06T11:28:11.328299+00:00", "meta": {"OBJECT_NAME": "BEIDOU-3 M21 (C43)", "OBJECT_ID": "2019-078B", "EPOCH": "2025-12-04T20:12:58.830048", "MEAN_MOTION": 1.86227548, "ECCENTRICITY": 0.00039788, "INCLINATION": 54.0888, "RA_OF_ASC_NODE": 306.6286, "ARG_OF_PERICENTER": 10.942, "MEAN_ANOMALY": 349.0489, "EPHEMERIS_TYPE": 0, "CLASSIFICATION_TYPE": "U", "NORAD_CAT_ID": 44794, "ELEMENT_SET_NO": 999, "REV_AT_EPOCH": 4103, "BSTAR": 0, "MEAN_MOTION_DOT": -6.9e-07, "MEAN_MOTION_DDOT": 0}, "tle": {"line1": "1 44794U 19078B   25338.84234757 -.00000069  00000+0  00000+0 0  9998", "line2": "2 44794  54.0888 306.6286 0003978  10.9420 349.0489  1.86227548 41035"}}, "geometry": {"type": "Point", "coordinates": [-43.56027693244081, 13.344398630544294]}}, {"type": "Feature", "properties": {"norad_id": 44864, "name": "BEIDOU-3 M19 (C41)", "group": "beidou", "lat": -26.255199958207957, "lon": -91.70105119954766, "alt_km": 21517.050030803777, "timestamp": "2025-12-06T11:28:11.328310+00:00", "meta": {"OBJECT_NAME": "BEIDOU-3 M19 (C41)", "OBJECT_ID": "2019-090A", "EPOCH": "2025-12-02T22:27:31.551840", "MEAN_MOTION": 1.86231053, "ECCENTRICITY": 0.00175607, "INCLINATION": 56.3847, "RA_OF_ASC_NODE": 69.2872, "ARG_OF_PERICENTER": 284.9296, "MEAN_ANOMALY": 72.494, "EPHEMERIS_TYPE": 0, "CLASSIFICATION_TYPE": "U", "NORAD_CAT_ID": 44864, "ELEMENT_SET_NO": 999, "REV_AT_EPOCH": 4057, "BSTAR": 0, "MEAN_MOTION_DOT": -4.9e-07, "MEAN_MOTION_DDOT": 0}, "tle": {"line1": "1 44864U 19090A   25336.93578185 -.00000049  00000+0  00000+0 0  9992", "line2": "2 44864  56.3847  69.2872 0017560 284.9296  72.4940  1.86231053 40575"}}, "geometry": {"type": "Point", "coordinates": [-91.70105119954766, -26.255199958207957]}}, {"type": "Feature", "properties": {"norad_id": 44865, "name": "BEIDOU-3 M20 (C42)", "group": "beidou", "lat": -45.03723562616312, "lon": 27.536374531813767, "alt_km": 21492.377831588925, "timestamp": "2025-12-06T11:28:11.328321+00:00", "meta": {"OBJECT_NAME": "BEIDOU-3 M20 (C42)", "OBJECT_ID": "2019-090B", "EPOCH": "2025-12-03T10:37:23.867040", "MEAN_MOTION": 1.86231029, "ECCENTRICITY": 0.00147135, "INCLINATION": 56.3867, "RA_OF_ASC_NODE": 69.3045, "ARG_OF_PERICENTER": 297.7194, "MEAN_ANOMALY": 129.1388, "EPHEMERIS_TYPE": 0, "CLASSIFICATION_TYPE": "U", "NORAD_CAT_ID": 44865, "ELEMENT_SET_NO": 999, "REV_AT_EPOCH": 4057, "BSTAR": 0, "MEAN_MOTION_DOT": -5e-07, "MEAN_MOTION_DDOT": 0}, "tle": {"line1": "1 44865U 19090B   25337.44263735 -.00000050  00000+0  00000+0 0  9994", "line2": "2 44865  56.3867  69.3045 0014713 297.7194 129.1388  1.86231029 40576"}}, "geometry": {"type": "Point", "coordinates": [27.536374531813767, -45.03723562616312]}}, {"type": "Feature", "properties": {"norad_id": 45344, "name": "BEIDOU-3 G2 (C60)", "group": "beidou", "lat": -2.417799853959663, "lon": -32.46290816357429, "alt_km": 35767.33970379636, "timestamp": "2025-12-06T11:28:11.328333+00:00", "meta": {"OBJECT_NAME": "BEIDOU-3 G2 (C60)", "OBJECT_ID": "2020-017A", "EPOCH": "2025-12-05T15:47:23.962272", "MEAN_MOTION": 1.00262828, "ECCENTRICITY": 0.00053913, "INCLINATION": 2.4835, "RA_OF_ASC_NODE": 43.7472, "ARG_OF_PERICENTER": 266.1366, "MEAN_ANOMALY": 81.6514, "EPHEMERIS_TYPE": 0, "CLASSIFICATION_TYPE": "U", "NORAD_CAT_ID": 45344, "ELEMENT_SET_NO": 999, "REV_AT_EPOCH": 2131, "BSTAR": 0, "MEAN_MOTION_DOT": -1.29e-06, "MEAN_MOTION_DDOT": 0}, "tle": {"line1": "1 45344U 20017A   25339.65791623 -.00000129  00000+0  00000+0 0  9992", "line2": "2 45344   2.4835  43.7472 0005391 266.1366  81.6514  1.00262828 21310"}}, "geometry": {"type": "Point", "coordinates": [-32.46290816357429, -2.417799853959663]}}, {"type": "Feature", "properties": {"norad_id": 45807, "name": "BEIDOU-3 G3 (C61)", "group": "beidou", "lat": -1.8293787777093191, "lon": -1.995021196568874, "alt_km": 35767.2088509847, "timestamp": "2025-12-06T11:28:11.328345+00:00", "meta": {"OBJECT_NAME": "BEIDOU-3 G3 (C61)", "OBJECT_ID": "2020-040A", "EPOCH": "2025-12-05T21:04:15.154752", "MEAN_MOTION": 1.00265344, "ECCENTRICITY": 0.000512, "INCLINATION": 1.9736, "RA_OF_ASC_NODE": 66.5543, "ARG_OF_PERICENTER": 303.6398, "MEAN_ANOMALY": 131.2596, "EPHEMERIS_TYPE": 0, "CLASSIFICATION_TYPE": "U", "NORAD_CAT_ID": 45807, "ELEMENT_SET_NO": 999, "REV_AT_EPOCH": 2013, "BSTAR": 0, "MEAN_MOTION_DOT": -3.45e-06, "MEAN_MOTION_DDOT": 0}, "tle": {"line1": "1 45807U 20040A   25339.87795318 -.00000345  00000+0  00000+0 0  9991", "line2": "2 45807   1.9736  66.5543 0005120 303.6398 131.2596  1.00265344 20139"}}, "geometry": {"type": "Point", "coordinates": [-1.995021196568874, -1.8293787777093191]}}, {"type": "Feature", "properties": {"norad_id": 56564, "name": "BEIDOU-3 G4 (C62)", "group": "beidou", "lat": 0.8211990685332005, "lon": 47.59117054241398, "alt_km": 35794.98827802747, "timestamp": "2025-12-06T11:28:11.328357+00:00", "meta": {"OBJECT_NAME": "BEIDOU-3 G4 (C62)", "OBJECT_ID": "2023-066A", "EPOCH": "2025-12-05T21:18:21.305376", "MEAN_MOTION": 1.00270929, "ECCENTRICITY": 0.00032035, "INCLINATION": 0.8305, "RA_OF_ASC_NODE": 301.476, "ARG_OF_PERICENTER": 236.6642, "MEAN_ANOMALY": 16.4531, "EPHEMERIS_TYPE": 0, "CLASSIFICATION_TYPE": "U", "NORAD_CAT_ID": 56564, "ELEMENT_SET_NO": 999, "REV_AT_EPOCH": 945, "BSTAR": 0, "MEAN_MOTION_DOT": -1.01e-06, "MEAN_MOTION_DDOT": 0}, "tle": {"line1": "1 56564U 23066A   25339.88774659 -.00000101  00000+0  00000+0 0  9990", "line2": "2 56564   0.8305 301.4760 0003203 236.6642  16.4531  1.00270929  9450"}}, "geometry": {"type": "Point", "coordinates": [47.59117054241398, 0.8211990685332005]}}, {"type": "Feature", "properties": {"norad_id": 58654, "name": "BEIDOU-3 M28 (C50)", "group": "beidou", "lat": -28.96488833744352, "lon": 46.55325935393136, "alt_km": 21529.010648820717, "timestamp": "2025-12-06T11:28:11.328368+00:00", "meta": {"OBJECT_NAME": "BEIDOU-3 M28 (C50)", "OBJECT_ID": "2023-207A", "EPOCH": "2025-12-03T07:26:02.398272", "MEAN_MOTION": 1.86229561, "ECCENTRICITY": 0.00020314, "INCLINATION": 55.5764, "RA_OF_ASC_NODE": 68.9209, "ARG_OF_PERICENTER": 265.1091, "MEAN_ANOMALY": 94.871, "EPHEMERIS_TYPE": 0, "CLASSIFICATION_TYPE": "U", "NORAD_CAT_ID": 58654, "ELEMENT_SET_NO": 999, "REV_AT_EPOCH": 1319, "BSTAR": 0, "MEAN_MOTION_DOT": -5.1e-07, "MEAN_MOTION_DDOT": 0}, "tle": {"line1": "1 58654U 23207A   25337.30974998 -.00000051  00000+0  00000+0 0  9996", "line2": "2 58654  55.5764  68.9209 0002031 265.1091  94.8710  1.86229561 13199"}}, "geometry": {"type": "Point", "coordinates": [46.55325935393136, -28.96488833744352]}}]}